{
  "type": "FeatureCollection",
  "name": "edges",
  "fixture": true,
  "crs": {
    "type": "name",
    "properties": {
      "name": "urn:ogc:def:crs:OGC:1.3:CRS84"
    }
  },
  "features": [
    {
      "type": "Feature",
      "geometry": {
        "type": "LineString",
        "coordinates": [
          [
            31.69,
            26.55
          ],
          [
            31.690904,
            26.550359
          ]
        ]
      },
      "properties": {
        "id": "e_0001",
        "from": "n_gate_main",
        "to": "n_plaza_c",
        "length_m": 98,
        "surface": "paved",
        "width_m": 4.0,
        "steps": 0,
        "step_height_cm": null,
        "handrail": null,
        "incline_pct": 1,
        "tactile_paving": true,
        "covered": false,
        "lighting": "good",
        "wheelchair": "yes",
        "oneway": false,
        "landmarks_ar": [
          "كشك الأمن على اليمين",
          "صف أشجار على اليسار"
        ],
        "hazards_ar": [
          "سيارات بتدخل من البوابة"
        ],
        "survey_status": "verified"
      }
    },
    {
      "type": "Feature",
      "geometry": {
        "type": "LineString",
        "coordinates": [
          [
            31.690904,
            26.550359
          ],
          [
            31.691506,
            26.55018
          ]
        ]
      },
      "properties": {
        "id": "e_0002",
        "from": "n_plaza_c",
        "to": "n_cafe",
        "length_m": 63,
        "surface": "tiled",
        "width_m": 3.0,
        "steps": 0,
        "step_height_cm": null,
        "handrail": null,
        "incline_pct": 0,
        "tactile_paving": false,
        "covered": true,
        "lighting": "good",
        "wheelchair": "yes",
        "oneway": false,
        "landmarks_ar": [
          "النافورة على اليمين",
          "الكافتيريا قدامك، ريحة القهوة"
        ],
        "hazards_ar": [],
        "survey_status": "verified"
      }
    },
    {
      "type": "Feature",
      "geometry": {
        "type": "LineString",
        "coordinates": [
          [
            31.691506,
            26.55018
          ],
          [
            31.692008,
            26.550539
          ]
        ]
      },
      "properties": {
        "id": "e_0003",
        "from": "n_cafe",
        "to": "n_junction_lib",
        "length_m": 64,
        "surface": "tiled",
        "width_m": 3.0,
        "steps": 0,
        "step_height_cm": null,
        "handrail": null,
        "incline_pct": 0,
        "tactile_paving": false,
        "covered": false,
        "lighting": "good",
        "wheelchair": "yes",
        "oneway": false,
        "landmarks_ar": [
          "كراسي الكافتيريا على اليسار"
        ],
        "hazards_ar": [
          "كراسي متحركة ممكن تكون في الطريق"
        ],
        "survey_status": "verified"
      }
    },
    {
      "type": "Feature",
      "geometry": {
        "type": "LineString",
        "coordinates": [
          [
            31.690904,
            26.550359
          ],
          [
            31.692008,
            26.550539
          ]
        ]
      },
      "properties": {
        "id": "e_0004",
        "from": "n_plaza_c",
        "to": "n_junction_lib",
        "length_m": 112,
        "surface": "paved",
        "width_m": 3.5,
        "steps": 0,
        "step_height_cm": null,
        "handrail": null,
        "incline_pct": 1,
        "tactile_paving": true,
        "covered": false,
        "lighting": "good",
        "wheelchair": "yes",
        "oneway": false,
        "landmarks_ar": [
          "ممر مستقيم، بلاط تحذيري في النص"
        ],
        "hazards_ar": [],
        "survey_status": "verified"
      }
    },
    {
      "type": "Feature",
      "geometry": {
        "type": "LineString",
        "coordinates": [
          [
            31.692008,
            26.550539
          ],
          [
            31.691958,
            26.551168
          ]
        ]
      },
      "properties": {
        "id": "e_0005",
        "from": "n_junction_lib",
        "to": "n_lib_entrance",
        "length_m": 70,
        "surface": "tiled",
        "width_m": 2.5,
        "steps": 0,
        "step_height_cm": null,
        "handrail": null,
        "incline_pct": 2,
        "tactile_paving": true,
        "covered": true,
        "lighting": "good",
        "wheelchair": "yes",
        "oneway": false,
        "landmarks_ar": [
          "ممر مغطى، الباب الأوتوماتيك في الآخر"
        ],
        "hazards_ar": [],
        "survey_status": "verified"
      }
    },
    {
      "type": "Feature",
      "geometry": {
        "type": "LineString",
        "coordinates": [
          [
            31.692008,
            26.550539
          ],
          [
            31.692511,
            26.550898
          ]
        ]
      },
      "properties": {
        "id": "e_0006",
        "from": "n_junction_lib",
        "to": "n_steps_bottom",
        "length_m": 64,
        "surface": "paved",
        "width_m": 2.5,
        "steps": 0,
        "step_height_cm": null,
        "handrail": null,
        "incline_pct": 2,
        "tactile_paving": false,
        "covered": false,
        "lighting": "good",
        "wheelchair": "yes",
        "oneway": false,
        "landmarks_ar": [
          "الطريق بيضيق شوية"
        ],
        "hazards_ar": [],
        "survey_status": "verified"
      }
    },
    {
      "type": "Feature",
      "geometry": {
        "type": "LineString",
        "coordinates": [
          [
            31.692511,
            26.550898
          ],
          [
            31.692511,
            26.551347
          ]
        ]
      },
      "properties": {
        "id": "e_0007",
        "from": "n_steps_bottom",
        "to": "n_steps_top",
        "length_m": 50,
        "surface": "concrete",
        "width_m": 2.0,
        "steps": 12,
        "step_height_cm": 16,
        "handrail": true,
        "incline_pct": null,
        "tactile_paving": false,
        "covered": false,
        "lighting": "poor",
        "wheelchair": "no",
        "oneway": false,
        "landmarks_ar": [
          "سلم ١٢ درجة، درابزين على الجهتين"
        ],
        "hazards_ar": [
          "الدرجات مش متساوية في الارتفاع"
        ],
        "survey_status": "verified"
      }
    },
    {
      "type": "Feature",
      "geometry": {
        "type": "LineString",
        "coordinates": [
          [
            31.692511,
            26.551347
          ],
          [
            31.692611,
            26.551707
          ]
        ]
      },
      "properties": {
        "id": "e_0008",
        "from": "n_steps_top",
        "to": "n_eng_main",
        "length_m": 41,
        "surface": "paved",
        "width_m": 3.0,
        "steps": 3,
        "step_height_cm": 15,
        "handrail": false,
        "incline_pct": null,
        "tactile_paving": false,
        "covered": false,
        "lighting": "good",
        "wheelchair": "no",
        "oneway": false,
        "landmarks_ar": [
          "ساحة صغيرة قبل الباب"
        ],
        "hazards_ar": [
          "٣ درجات قبل الباب من غير درابزين"
        ],
        "survey_status": "verified"
      }
    },
    {
      "type": "Feature",
      "geometry": {
        "type": "LineString",
        "coordinates": [
          [
            31.692008,
            26.550539
          ],
          [
            31.693314,
            26.550808
          ]
        ]
      },
      "properties": {
        "id": "e_0009",
        "from": "n_junction_lib",
        "to": "n_junction_east",
        "length_m": 133,
        "surface": "paved",
        "width_m": 3.5,
        "steps": 0,
        "step_height_cm": null,
        "handrail": null,
        "incline_pct": 1,
        "tactile_paving": false,
        "covered": false,
        "lighting": "good",
        "wheelchair": "yes",
        "oneway": false,
        "landmarks_ar": [
          "صف نخل على اليمين"
        ],
        "hazards_ar": [],
        "survey_status": "verified"
      }
    },
    {
      "type": "Feature",
      "geometry": {
        "type": "LineString",
        "coordinates": [
          [
            31.693314,
            26.550808
          ],
          [
            31.693013,
            26.550943
          ]
        ]
      },
      "properties": {
        "id": "e_0010",
        "from": "n_junction_east",
        "to": "n_ramp_bottom",
        "length_m": 33,
        "surface": "paved",
        "width_m": 3.0,
        "steps": 0,
        "step_height_cm": null,
        "handrail": null,
        "incline_pct": 2,
        "tactile_paving": true,
        "covered": false,
        "lighting": "good",
        "wheelchair": "yes",
        "oneway": false,
        "landmarks_ar": [
          "بلاط تحذيري قبل المنحدر"
        ],
        "hazards_ar": [],
        "survey_status": "verified"
      }
    },
    {
      "type": "Feature",
      "geometry": {
        "type": "LineString",
        "coordinates": [
          [
            31.693013,
            26.550943
          ],
          [
            31.693113,
            26.551392
          ]
        ]
      },
      "properties": {
        "id": "e_0011",
        "from": "n_ramp_bottom",
        "to": "n_ramp_top",
        "length_m": 51,
        "surface": "concrete",
        "width_m": 2.0,
        "steps": 0,
        "step_height_cm": null,
        "handrail": true,
        "incline_pct": 7,
        "tactile_paving": false,
        "covered": false,
        "lighting": "good",
        "wheelchair": "yes",
        "oneway": false,
        "landmarks_ar": [
          "منحدر بدرابزين، ميل متوسط"
        ],
        "hazards_ar": [],
        "survey_status": "verified"
      }
    },
    {
      "type": "Feature",
      "geometry": {
        "type": "LineString",
        "coordinates": [
          [
            31.693113,
            26.551392
          ],
          [
            31.693213,
            26.551752
          ]
        ]
      },
      "properties": {
        "id": "e_0012",
        "from": "n_ramp_top",
        "to": "n_eng_side",
        "length_m": 41,
        "surface": "paved",
        "width_m": 2.5,
        "steps": 0,
        "step_height_cm": null,
        "handrail": null,
        "incline_pct": 1,
        "tactile_paving": false,
        "covered": false,
        "lighting": "good",
        "wheelchair": "yes",
        "oneway": false,
        "landmarks_ar": [
          "الباب الجانبي على الشمال"
        ],
        "hazards_ar": [],
        "survey_status": "verified"
      }
    },
    {
      "type": "Feature",
      "geometry": {
        "type": "LineString",
        "coordinates": [
          [
            31.693314,
            26.550808
          ],
          [
            31.694017,
            26.551078
          ]
        ]
      },
      "properties": {
        "id": "e_0013",
        "from": "n_junction_east",
        "to": "n_sci_entrance",
        "length_m": 76,
        "surface": "paved",
        "width_m": 3.0,
        "steps": 0,
        "step_height_cm": null,
        "handrail": null,
        "incline_pct": 1,
        "tactile_paving": false,
        "covered": false,
        "lighting": "good",
        "wheelchair": "yes",
        "oneway": false,
        "landmarks_ar": [
          "مبنى العلوم قدامك"
        ],
        "hazards_ar": [],
        "survey_status": "verified"
      }
    },
    {
      "type": "Feature",
      "geometry": {
        "type": "LineString",
        "coordinates": [
          [
            31.690402,
            26.552336
          ],
          [
            31.693213,
            26.551752
          ]
        ]
      },
      "properties": {
        "id": "e_0014",
        "from": "n_gate_north",
        "to": "n_eng_side",
        "length_m": 287,
        "surface": "paved",
        "width_m": 2.0,
        "steps": 0,
        "step_height_cm": null,
        "handrail": null,
        "incline_pct": 2,
        "tactile_paving": false,
        "covered": false,
        "lighting": "poor",
        "wheelchair": "limited",
        "oneway": true,
        "landmarks_ar": [
          "بوابة دوارة، اتجاه واحد للدخول"
        ],
        "hazards_ar": [
          "البوابة الدوارة ضيقة على الكرسي المتحرك"
        ],
        "survey_status": "verified"
      }
    },
    {
      "type": "Feature",
      "geometry": {
        "type": "LineString",
        "coordinates": [
          [
            31.690904,
            26.550359
          ],
          [
            31.692109,
            26.549281
          ]
        ]
      },
      "properties": {
        "id": "e_0015",
        "from": "n_plaza_c",
        "to": "n_junction_south",
        "length_m": 170,
        "surface": "unknown",
        "width_m": null,
        "steps": null,
        "step_height_cm": null,
        "handrail": null,
        "incline_pct": null,
        "tactile_paving": null,
        "covered": null,
        "lighting": "unknown",
        "wheelchair": "unknown",
        "oneway": false,
        "landmarks_ar": [],
        "hazards_ar": [],
        "survey_status": "imagery"
      }
    },
    {
      "type": "Feature",
      "geometry": {
        "type": "LineString",
        "coordinates": [
          [
            31.692109,
            26.549281
          ],
          [
            31.691205,
            26.549461
          ]
        ]
      },
      "properties": {
        "id": "e_0016",
        "from": "n_junction_south",
        "to": "n_admin_entrance",
        "length_m": 92,
        "surface": "unknown",
        "width_m": null,
        "steps": null,
        "step_height_cm": null,
        "handrail": null,
        "incline_pct": null,
        "tactile_paving": null,
        "covered": null,
        "lighting": "unknown",
        "wheelchair": "unknown",
        "oneway": false,
        "landmarks_ar": [],
        "hazards_ar": [],
        "survey_status": "imagery"
      }
    },
    {
      "type": "Feature",
      "geometry": {
        "type": "LineString",
        "coordinates": [
          [
            31.692109,
            26.549281
          ],
          [
            31.692008,
            26.550539
          ]
        ]
      },
      "properties": {
        "id": "e_0017",
        "from": "n_junction_south",
        "to": "n_junction_lib",
        "length_m": 140,
        "surface": "unknown",
        "width_m": null,
        "steps": null,
        "step_height_cm": null,
        "handrail": null,
        "incline_pct": null,
        "tactile_paving": null,
        "covered": null,
        "lighting": "unknown",
        "wheelchair": "unknown",
        "oneway": false,
        "landmarks_ar": [],
        "hazards_ar": [],
        "survey_status": "imagery"
      }
    }
  ]
}
