{
  "type": "FeatureCollection",
  "name": "nodes",
  "fixture": true,
  "crs": {
    "type": "name",
    "properties": {
      "name": "urn:ogc:def:crs:OGC:1.3:CRS84"
    }
  },
  "features": [
    {
      "type": "Feature",
      "geometry": {
        "type": "Point",
        "coordinates": [
          31.69,
          26.55
        ]
      },
      "properties": {
        "id": "n_gate_main",
        "type": "campus_gate",
        "name_ar": "البوابة الرئيسية",
        "name_en": "Main gate",
        "building_id": null,
        "wheelchair": "yes",
        "door_type": "open",
        "landmark_ar": "بوابة حديدية كبيرة، كشك الأمن على اليمين",
        "landmark_en": "Large iron gate, security booth on the right",
        "survey_status": "verified",
        "photo_ref": null
      }
    },
    {
      "type": "Feature",
      "geometry": {
        "type": "Point",
        "coordinates": [
          31.690402,
          26.552336
        ]
      },
      "properties": {
        "id": "n_gate_north",
        "type": "campus_gate",
        "name_ar": "البوابة الشمالية",
        "name_en": "North gate",
        "building_id": null,
        "wheelchair": "limited",
        "door_type": "open",
        "landmark_ar": "بوابة صغيرة، درجة واحدة عند الدخول",
        "landmark_en": "Small gate, single step at the entrance",
        "survey_status": "verified",
        "photo_ref": null
      }
    },
    {
      "type": "Feature",
      "geometry": {
        "type": "Point",
        "coordinates": [
          31.690904,
          26.550359
        ]
      },
      "properties": {
        "id": "n_plaza_c",
        "type": "junction",
        "name_ar": "ساحة الميدان",
        "name_en": "Central plaza",
        "building_id": null,
        "wheelchair": "yes",
        "door_type": null,
        "landmark_ar": "ساحة مفتوحة، نافورة في المنتصف وصوت الميه واضح",
        "landmark_en": "Open plaza, fountain in the middle, water clearly audible",
        "survey_status": "verified",
        "photo_ref": null
      }
    },
    {
      "type": "Feature",
      "geometry": {
        "type": "Point",
        "coordinates": [
          31.692008,
          26.550539
        ]
      },
      "properties": {
        "id": "n_junction_lib",
        "type": "junction",
        "name_ar": "",
        "name_en": "",
        "building_id": null,
        "wheelchair": "yes",
        "door_type": null,
        "landmark_ar": "تقاطع أمام المكتبة، البلاط بيتغير من ناعم لخشن",
        "landmark_en": "Junction by the library, paving changes smooth to rough",
        "survey_status": "verified",
        "photo_ref": null
      }
    },
    {
      "type": "Feature",
      "geometry": {
        "type": "Point",
        "coordinates": [
          31.693314,
          26.550808
        ]
      },
      "properties": {
        "id": "n_junction_east",
        "type": "junction",
        "name_ar": "",
        "name_en": "",
        "building_id": null,
        "wheelchair": "yes",
        "door_type": null,
        "landmark_ar": "تقاطع تحت صف النخل",
        "landmark_en": "Junction under the row of palm trees",
        "survey_status": "verified",
        "photo_ref": null
      }
    },
    {
      "type": "Feature",
      "geometry": {
        "type": "Point",
        "coordinates": [
          31.692109,
          26.549281
        ]
      },
      "properties": {
        "id": "n_junction_south",
        "type": "junction",
        "name_ar": "",
        "name_en": "",
        "building_id": null,
        "wheelchair": "yes",
        "door_type": null,
        "landmark_ar": "تقاطع جنب موقف السيارات",
        "landmark_en": "Junction next to the car park",
        "survey_status": "imagery",
        "photo_ref": null
      }
    },
    {
      "type": "Feature",
      "geometry": {
        "type": "Point",
        "coordinates": [
          31.692511,
          26.551347
        ]
      },
      "properties": {
        "id": "n_steps_top",
        "type": "stairs_top",
        "name_ar": "",
        "name_en": "",
        "building_id": null,
        "wheelchair": "no",
        "door_type": null,
        "landmark_ar": "أعلى السلم، درابزين على الجهتين",
        "landmark_en": "Top of the stairs, handrail on both sides",
        "survey_status": "verified",
        "photo_ref": null
      }
    },
    {
      "type": "Feature",
      "geometry": {
        "type": "Point",
        "coordinates": [
          31.692511,
          26.550898
        ]
      },
      "properties": {
        "id": "n_steps_bottom",
        "type": "stairs_bottom",
        "name_ar": "",
        "name_en": "",
        "building_id": null,
        "wheelchair": "no",
        "door_type": null,
        "landmark_ar": "أسفل السلم",
        "landmark_en": "Bottom of the stairs",
        "survey_status": "verified",
        "photo_ref": null
      }
    },
    {
      "type": "Feature",
      "geometry": {
        "type": "Point",
        "coordinates": [
          31.693013,
          26.550943
        ]
      },
      "properties": {
        "id": "n_ramp_bottom",
        "type": "ramp_bottom",
        "name_ar": "",
        "name_en": "",
        "building_id": null,
        "wheelchair": "yes",
        "door_type": null,
        "landmark_ar": "أسفل المنحدر، بلاط تحذيري قبله",
        "landmark_en": "Bottom of the ramp, tactile paving before it",
        "survey_status": "verified",
        "photo_ref": null
      }
    },
    {
      "type": "Feature",
      "geometry": {
        "type": "Point",
        "coordinates": [
          31.693113,
          26.551392
        ]
      },
      "properties": {
        "id": "n_ramp_top",
        "type": "ramp_top",
        "name_ar": "",
        "name_en": "",
        "building_id": null,
        "wheelchair": "yes",
        "door_type": null,
        "landmark_ar": "أعلى المنحدر",
        "landmark_en": "Top of the ramp",
        "survey_status": "verified",
        "photo_ref": null
      }
    },
    {
      "type": "Feature",
      "geometry": {
        "type": "Point",
        "coordinates": [
          31.692611,
          26.551707
        ]
      },
      "properties": {
        "id": "n_eng_main",
        "type": "building_entrance",
        "name_ar": "المدخل الرئيسي - كلية الهندسة",
        "name_en": "Engineering — main entrance",
        "building_id": "b_engineering",
        "wheelchair": "no",
        "door_type": "double_manual",
        "landmark_ar": "باب زجاجي مزدوج، ثلاث درجات قبل الباب",
        "landmark_en": "Double glass door, three steps before it",
        "survey_status": "verified",
        "photo_ref": null
      }
    },
    {
      "type": "Feature",
      "geometry": {
        "type": "Point",
        "coordinates": [
          31.693213,
          26.551752
        ]
      },
      "properties": {
        "id": "n_eng_side",
        "type": "building_entrance",
        "name_ar": "المدخل الجانبي - كلية الهندسة",
        "name_en": "Engineering — side entrance",
        "building_id": "b_engineering",
        "wheelchair": "yes",
        "door_type": "single_manual",
        "landmark_ar": "باب جانبي مستوي مع الأرض، بعد المنحدر",
        "landmark_en": "Side door level with the ground, past the ramp",
        "survey_status": "verified",
        "photo_ref": null
      }
    },
    {
      "type": "Feature",
      "geometry": {
        "type": "Point",
        "coordinates": [
          31.691958,
          26.551168
        ]
      },
      "properties": {
        "id": "n_lib_entrance",
        "type": "building_entrance",
        "name_ar": "مدخل المكتبة",
        "name_en": "Library entrance",
        "building_id": "b_library",
        "wheelchair": "yes",
        "door_type": "automatic",
        "landmark_ar": "باب أوتوماتيك، صوت جرس عند الفتح",
        "landmark_en": "Automatic door, chime when it opens",
        "survey_status": "verified",
        "photo_ref": null
      }
    },
    {
      "type": "Feature",
      "geometry": {
        "type": "Point",
        "coordinates": [
          31.694017,
          26.551078
        ]
      },
      "properties": {
        "id": "n_sci_entrance",
        "type": "building_entrance",
        "name_ar": "مدخل كلية العلوم",
        "name_en": "Science — main entrance",
        "building_id": "b_science",
        "wheelchair": "limited",
        "door_type": "double_manual",
        "landmark_ar": "درجة واحدة عند الباب، عرض ٢٠ سم",
        "landmark_en": "Single step at the door, 20 cm",
        "survey_status": "verified",
        "photo_ref": null
      }
    },
    {
      "type": "Feature",
      "geometry": {
        "type": "Point",
        "coordinates": [
          31.691205,
          26.549461
        ]
      },
      "properties": {
        "id": "n_admin_entrance",
        "type": "building_entrance",
        "name_ar": "مدخل المبنى الإداري",
        "name_en": "Administration entrance",
        "building_id": "b_admin",
        "wheelchair": "unknown",
        "door_type": "single_manual",
        "landmark_ar": null,
        "landmark_en": null,
        "survey_status": "imagery",
        "photo_ref": null
      }
    },
    {
      "type": "Feature",
      "geometry": {
        "type": "Point",
        "coordinates": [
          31.691506,
          26.55018
        ]
      },
      "properties": {
        "id": "n_cafe",
        "type": "poi",
        "name_ar": "الكافتيريا",
        "name_en": "Cafeteria",
        "building_id": null,
        "wheelchair": "yes",
        "door_type": "open",
        "landmark_ar": "ريحة القهوة وصوت الناس واضح",
        "landmark_en": "Smell of coffee, audible chatter",
        "survey_status": "verified",
        "photo_ref": null
      }
    }
  ]
}
